ONEWEB-0199             
1 48234U 21031AA  24143.86853720 -.00006569  00000+0 -17758-1 0  9997
2 48234  87.8959  79.9753 0001867  71.2767 288.8565 13.14534350149039
ONEWEB-0203             
1 48235U 21031AB  24143.85902682 -.00000033  00000+0 -12410-3 0  9991
2 48235  87.8961  79.9785 0002287  91.3671 268.7721 13.14500683149046
ONEWEB-0197             
1 48236U 21031AC  24143.83445744  .00002825  00000+0  75847-2 0  9992
2 48236  87.8964  79.9919 0001638  82.6572 277.4743 13.14487219148950
ONEWEB-0194             
1 48237U 21031AD  24143.81305165  .00000245  00000+0  62606-3 0  9997
2 48237  87.8963  79.9888 0002047  89.3188 270.8176 13.14501427149122
ONEWEB-0193             
1 48238U 21031AE  24143.82890116  .00000093  00000+0  21692-3 0  9995
2 48238  87.8965  79.9936 0002178  81.6580 278.4796 13.14505264149074
ONEWEB-0191             
1 48239U 21031AF  24143.84000111 -.00000098  00000+0 -30011-3 0  9998
2 48239  87.8963  79.9760 0002115  83.1127 277.0243 13.14501033148939
ONEWEB-0195             
1 48240U 21031AG  24143.36029703  .00000178  00000+0  44590-3 0  9999
2 48240  87.8960  80.0708 0002456  74.6278 285.5123 13.14505866148853
ONEWEB-0201             
1 48241U 21031AH  24143.88203294  .00000608  00000+0  16044-2 0  9996
2 48241  87.8962  80.0009 0002655  84.9485 275.1948 13.14502559149155
